CCSDS_OMM_VERS = 2.0
CREATION_DATE  = 
ORIGINATOR     = 

OBJECT_NAME    = RASSVET-3 8
OBJECT_ID      = 2026-061H
CENTER_NAME    = EARTH
REF_FRAME      = TEME
TIME_SYSTEM    = UTC
MEAN_ELEMENT_THEORY = SGP/SGP4

EPOCH          = 2026-04-04T19:31:55.717248
MEAN_MOTION    = 15.89208553
ECCENTRICITY   = .0025882
INCLINATION    = 82.2971
RA_OF_ASC_NODE = 95.0070
ARG_OF_PERICENTER = 29.2347
MEAN_ANOMALY   = 331.0366

EPHEMERIS_TYPE = 0
CLASSIFICATION_TYPE = U
NORAD_CAT_ID   = 68367
ELEMENT_SET_NO = 999
REV_AT_EPOCH   = 192
BSTAR          = .22691E-3
MEAN_MOTION_DOT = .67106E-3
MEAN_MOTION_DDOT = .4269E-6

CCSDS_OMM_VERS = 2.0
CREATION_DATE  = 
ORIGINATOR     = 

OBJECT_NAME    = RASSVET-3 9
OBJECT_ID      = 2026-061J
CENTER_NAME    = EARTH
REF_FRAME      = TEME
TIME_SYSTEM    = UTC
MEAN_ELEMENT_THEORY = SGP/SGP4

EPOCH          = 2026-04-04T17:59:05.676864
MEAN_MOTION    = 15.89962470
ECCENTRICITY   = .0024972
INCLINATION    = 82.2960
RA_OF_ASC_NODE = 95.0755
ARG_OF_PERICENTER = 29.9158
MEAN_ANOMALY   = 330.3535

EPHEMERIS_TYPE = 0
CLASSIFICATION_TYPE = U
NORAD_CAT_ID   = 68368
ELEMENT_SET_NO = 999
REV_AT_EPOCH   = 191
BSTAR          = .45213E-3
MEAN_MOTION_DOT = .138261E-2
MEAN_MOTION_DDOT = .55853E-5

CCSDS_OMM_VERS = 2.0
CREATION_DATE  = 
ORIGINATOR     = 

OBJECT_NAME    = RASSVET-3 10
OBJECT_ID      = 2026-061K
CENTER_NAME    = EARTH
REF_FRAME      = TEME
TIME_SYSTEM    = UTC
MEAN_ELEMENT_THEORY = SGP/SGP4

EPOCH          = 2026-04-04T19:31:25.685472
MEAN_MOTION    = 15.89259602
ECCENTRICITY   = .0025725
INCLINATION    = 82.2971
RA_OF_ASC_NODE = 95.0066
ARG_OF_PERICENTER = 29.2887
MEAN_ANOMALY   = 330.9820

EPHEMERIS_TYPE = 0
CLASSIFICATION_TYPE = U
NORAD_CAT_ID   = 68369
ELEMENT_SET_NO = 999
REV_AT_EPOCH   = 192
BSTAR          = .22927E-3
MEAN_MOTION_DOT = .67951E-3
MEAN_MOTION_DDOT = .46704E-6

CCSDS_OMM_VERS = 2.0
CREATION_DATE  = 
ORIGINATOR     = 

OBJECT_NAME    = RASSVET-3 11
OBJECT_ID      = 2026-061L
CENTER_NAME    = EARTH
REF_FRAME      = TEME
TIME_SYSTEM    = UTC
MEAN_ELEMENT_THEORY = SGP/SGP4

EPOCH          = 2026-04-04T18:00:16.657056
MEAN_MOTION    = 15.89289604
ECCENTRICITY   = .0025478
INCLINATION    = 82.2970
RA_OF_ASC_NODE = 95.0772
ARG_OF_PERICENTER = 29.4612
MEAN_ANOMALY   = 330.8088

EPHEMERIS_TYPE = 0
CLASSIFICATION_TYPE = U
NORAD_CAT_ID   = 68370
ELEMENT_SET_NO = 999
REV_AT_EPOCH   = 191
BSTAR          = .25518E-3
MEAN_MOTION_DOT = .75664E-3
MEAN_MOTION_DDOT = .85031E-6

CCSDS_OMM_VERS = 2.0
CREATION_DATE  = 
ORIGINATOR     = 

OBJECT_NAME    = RASSVET-3 12
OBJECT_ID      = 2026-061M
CENTER_NAME    = EARTH
REF_FRAME      = TEME
TIME_SYSTEM    = UTC
MEAN_ELEMENT_THEORY = SGP/SGP4

EPOCH          = 2026-04-04T17:59:51.545760
MEAN_MOTION    = 15.89354026
ECCENTRICITY   = .0025445
INCLINATION    = 82.2970
RA_OF_ASC_NODE = 95.0769
ARG_OF_PERICENTER = 29.4513
MEAN_ANOMALY   = 330.8186

EPHEMERIS_TYPE = 0
CLASSIFICATION_TYPE = U
NORAD_CAT_ID   = 68371
ELEMENT_SET_NO = 999
REV_AT_EPOCH   = 191
BSTAR          = .26158E-3
MEAN_MOTION_DOT = .77799E-3
MEAN_MOTION_DDOT = .96509E-6

CCSDS_OMM_VERS = 2.0
CREATION_DATE  = 
ORIGINATOR     = 

OBJECT_NAME    = RASSVET-3 13
OBJECT_ID      = 2026-061N
CENTER_NAME    = EARTH
REF_FRAME      = TEME
TIME_SYSTEM    = UTC
MEAN_ELEMENT_THEORY = SGP/SGP4

EPOCH          = 2026-04-04T17:59:36.882816
MEAN_MOTION    = 15.89353342
ECCENTRICITY   = .002523
INCLINATION    = 82.2970
RA_OF_ASC_NODE = 95.0765
ARG_OF_PERICENTER = 29.2717
MEAN_ANOMALY   = 330.9961

EPHEMERIS_TYPE = 0
CLASSIFICATION_TYPE = U
NORAD_CAT_ID   = 68372
ELEMENT_SET_NO = 999
REV_AT_EPOCH   = 191
BSTAR          = .25516E-3
MEAN_MOTION_DOT = .75857E-3
MEAN_MOTION_DDOT = .86188E-6

CCSDS_OMM_VERS = 2.0
CREATION_DATE  = 
ORIGINATOR     = 

OBJECT_NAME    = RASSVET-3 14
OBJECT_ID      = 2026-061P
CENTER_NAME    = EARTH
REF_FRAME      = TEME
TIME_SYSTEM    = UTC
MEAN_ELEMENT_THEORY = SGP/SGP4

EPOCH          = 2026-04-04T16:28:17.406912
MEAN_MOTION    = 15.89422871
ECCENTRICITY   = .0025207
INCLINATION    = 82.2969
RA_OF_ASC_NODE = 95.1474
ARG_OF_PERICENTER = 29.2284
MEAN_ANOMALY   = 331.0392

EPHEMERIS_TYPE = 0
CLASSIFICATION_TYPE = U
NORAD_CAT_ID   = 68373
ELEMENT_SET_NO = 999
REV_AT_EPOCH   = 190
BSTAR          = .24719E-3
MEAN_MOTION_DOT = .73755E-3
MEAN_MOTION_DDOT = .75433E-6

CCSDS_OMM_VERS = 2.0
CREATION_DATE  = 
ORIGINATOR     = 

OBJECT_NAME    = RASSVET-3 15
OBJECT_ID      = 2026-061Q
CENTER_NAME    = EARTH
REF_FRAME      = TEME
TIME_SYSTEM    = UTC
MEAN_ELEMENT_THEORY = SGP/SGP4

EPOCH          = 2026-04-04T17:58:50.276064
MEAN_MOTION    = 15.89441366
ECCENTRICITY   = .0024964
INCLINATION    = 82.2969
RA_OF_ASC_NODE = 95.0760
ARG_OF_PERICENTER = 29.1246
MEAN_ANOMALY   = 331.1411

EPHEMERIS_TYPE = 0
CLASSIFICATION_TYPE = U
NORAD_CAT_ID   = 68374
ELEMENT_SET_NO = 999
REV_AT_EPOCH   = 191
BSTAR          = .25735E-3
MEAN_MOTION_DOT = .76801E-3
MEAN_MOTION_DDOT = .91374E-6

CCSDS_OMM_VERS = 2.0
CREATION_DATE  = 
ORIGINATOR     = 

OBJECT_NAME    = RASSVET-3 16
OBJECT_ID      = 2026-061R
CENTER_NAME    = EARTH
REF_FRAME      = TEME
TIME_SYSTEM    = UTC
MEAN_ELEMENT_THEORY = SGP/SGP4

EPOCH          = 2026-04-04T19:26:08.487744
MEAN_MOTION    = 15.90295198
ECCENTRICITY   = .0024024
INCLINATION    = 82.2958
RA_OF_ASC_NODE = 95.0004
ARG_OF_PERICENTER = 30.5602
MEAN_ANOMALY   = 329.7063

EPHEMERIS_TYPE = 0
CLASSIFICATION_TYPE = U
NORAD_CAT_ID   = 68375
ELEMENT_SET_NO = 999
REV_AT_EPOCH   = 192
BSTAR          = .27282E-3
MEAN_MOTION_DOT = .84821E-3
MEAN_MOTION_DDOT = .13862E-5

CCSDS_OMM_VERS = 2.0
CREATION_DATE  = 
ORIGINATOR     = 

OBJECT_NAME    = SUPERVIEW NEO-2 OBJECT A
OBJECT_ID      = 2026-062A
CENTER_NAME    = EARTH
REF_FRAME      = TEME
TIME_SYSTEM    = UTC
MEAN_ELEMENT_THEORY = SGP/SGP4

EPOCH          = 2026-04-04T20:49:24.909888
MEAN_MOTION    = 15.20626473
ECCENTRICITY   = .0006595
INCLINATION    = 97.4368
RA_OF_ASC_NODE = 103.2169
ARG_OF_PERICENTER = 227.9983
MEAN_ANOMALY   = 132.0691

EPHEMERIS_TYPE = 0
CLASSIFICATION_TYPE = U
NORAD_CAT_ID   = 68377
ELEMENT_SET_NO = 999
REV_AT_EPOCH   = 151
BSTAR          = .21404E-3
MEAN_MOTION_DOT = .4628E-4
MEAN_MOTION_DDOT = 0

CCSDS_OMM_VERS = 2.0
CREATION_DATE  = 
ORIGINATOR     = 

OBJECT_NAME    = SUPERVIEW NEO-2 OBJECT B
OBJECT_ID      = 2026-062B
CENTER_NAME    = EARTH
REF_FRAME      = TEME
TIME_SYSTEM    = UTC
MEAN_ELEMENT_THEORY = SGP/SGP4

EPOCH          = 2026-03-31T17:19:08.069952
MEAN_MOTION    = 15.20585060
ECCENTRICITY   = .00089524
INCLINATION    = 97.4347
RA_OF_ASC_NODE = 99.1253
ARG_OF_PERICENTER = 250.4427
MEAN_ANOMALY   = 109.5842

EPHEMERIS_TYPE = 0
CLASSIFICATION_TYPE = U
NORAD_CAT_ID   = 68378
ELEMENT_SET_NO = 999
REV_AT_EPOCH   = 88
BSTAR          = .19790811E-3
MEAN_MOTION_DOT = .427E-4
MEAN_MOTION_DDOT = 0

CCSDS_OMM_VERS = 2.0
CREATION_DATE  = 
ORIGINATOR     = 

OBJECT_NAME    = CZ-2D R/B
OBJECT_ID      = 2026-062C
CENTER_NAME    = EARTH
REF_FRAME      = TEME
TIME_SYSTEM    = UTC
MEAN_ELEMENT_THEORY = SGP/SGP4

EPOCH          = 2026-04-04T20:44:45.634848
MEAN_MOTION    = 15.31233329
ECCENTRICITY   = .0052606
INCLINATION    = 97.4982
RA_OF_ASC_NODE = 103.2485
ARG_OF_PERICENTER = 27.2301
MEAN_ANOMALY   = 333.1680

EPHEMERIS_TYPE = 0
CLASSIFICATION_TYPE = U
NORAD_CAT_ID   = 68379
ELEMENT_SET_NO = 999
REV_AT_EPOCH   = 152
BSTAR          = .45817E-3
MEAN_MOTION_DOT = .14358E-3
MEAN_MOTION_DDOT = 0

